[
  {
    "OBJECT_NAME": "STARLINK-30303",
    "OBJECT_ID": "23124Q",
    "EPOCH": "2025-11-10T13:28:52.150080",
    "MEAN_MOTION": 15.30183468,
    "ECCENTRICITY": 0.0001331,
    "INCLINATION": 53.1614,
    "RA_OF_ASC_NODE": 39.8161,
    "ARG_OF_PERICENTER": 91.9662,
    "MEAN_ANOMALY": 268.1492,
    "EPHEMERIS_TYPE": 0,
    "CLASSIFICATION_TYPE": "U",
    "NORAD_CAT_ID": 57677,
    "ELEMENT_SET_NO": 999,
    "REV_AT_EPOCH": 12533,
    "BSTAR": 0.0,
    "MEAN_MOTION_DOT": -4.95e-06,
    "MEAN_MOTION_DDOT": 0.0,
    "TLE_LINE1": "1 57677U 23124Q   25314.56171470 -.00000495  00000+0 -45878-5 0  9996",
    "TLE_LINE2": "2 57677  53.1614  39.8161 0001331  91.9662 268.1492 15.30183468125338",
    "COMMENT": "Grouped by shell and plane from TLE"
  },
  {
    "OBJECT_NAME": "STARLINK-30321",
    "OBJECT_ID": "23124S",
    "EPOCH": "2025-11-11T05:24:34.802784",
    "MEAN_MOTION": 15.30197167,
    "ECCENTRICITY": 9.64e-05,
    "INCLINATION": 53.1617,
    "RA_OF_ASC_NODE": 36.852,
    "ARG_OF_PERICENTER": 78.9861,
    "MEAN_ANOMALY": 281.1249,
    "EPHEMERIS_TYPE": 0,
    "CLASSIFICATION_TYPE": "U",
    "NORAD_CAT_ID": 57679,
    "ELEMENT_SET_NO": 999,
    "REV_AT_EPOCH": 12543,
    "BSTAR": 0.00010163,
    "MEAN_MOTION_DOT": 2.652e-05,
    "MEAN_MOTION_DDOT": 0.0,
    "TLE_LINE1": "1 57679U 23124S   25315.22540281  .00002652  00000+0  10163-3 0  9994",
    "TLE_LINE2": "2 57679  53.1617  36.8520 0000964  78.9861 281.1249 15.30197167125433",
    "COMMENT": "Grouped by shell and plane from TLE"
  },
  {
    "OBJECT_NAME": "STARLINK-30283",
    "OBJECT_ID": "23124T",
    "EPOCH": "2025-11-11T06:20:47.663520",
    "MEAN_MOTION": 15.30203398,
    "ECCENTRICITY": 0.0001359,
    "INCLINATION": 53.1633,
    "RA_OF_ASC_NODE": 37.0639,
    "ARG_OF_PERICENTER": 104.6929,
    "MEAN_ANOMALY": 255.4223,
    "EPHEMERIS_TYPE": 0,
    "CLASSIFICATION_TYPE": "U",
    "NORAD_CAT_ID": 57680,
    "ELEMENT_SET_NO": 999,
    "REV_AT_EPOCH": 12543,
    "BSTAR": 4.0815e-05,
    "MEAN_MOTION_DOT": 8.5e-06,
    "MEAN_MOTION_DDOT": 0.0,
    "TLE_LINE1": "1 57680U 23124T   25315.26444055  .00000850  00000+0  40815-4 0  9998",
    "TLE_LINE2": "2 57680  53.1633  37.0639 0001359 104.6929 255.4223 15.30203398125438",
    "COMMENT": "Grouped by shell and plane from TLE"
  },
  {
    "OBJECT_NAME": "STARLINK-30273",
    "OBJECT_ID": "23124U",
    "EPOCH": "2025-11-11T05:29:13.861824",
    "MEAN_MOTION": 15.30180521,
    "ECCENTRICITY": 0.0001188,
    "INCLINATION": 53.1627,
    "RA_OF_ASC_NODE": 37.2724,
    "ARG_OF_PERICENTER": 88.4038,
    "MEAN_ANOMALY": 271.7099,
    "EPHEMERIS_TYPE": 0,
    "CLASSIFICATION_TYPE": "U",
    "NORAD_CAT_ID": 57681,
    "ELEMENT_SET_NO": 999,
    "REV_AT_EPOCH": 12542,
    "BSTAR": 0.00015537,
    "MEAN_MOTION_DOT": 4.242e-05,
    "MEAN_MOTION_DDOT": 0.0,
    "TLE_LINE1": "1 57681U 23124U   25315.22863266  .00004242  00000+0  15537-3 0  9995",
    "TLE_LINE2": "2 57681  53.1627  37.2724 0001188  88.4038 271.7099 15.30180521125422",
    "COMMENT": "Grouped by shell and plane from TLE"
  },
  {
    "OBJECT_NAME": "STARLINK-30297",
    "OBJECT_ID": "23124V",
    "EPOCH": "2025-11-11T06:16:15.105216",
    "MEAN_MOTION": 15.30218229,
    "ECCENTRICITY": 0.0001237,
    "INCLINATION": 53.1585,
    "RA_OF_ASC_NODE": 37.1104,
    "ARG_OF_PERICENTER": 97.7038,
    "MEAN_ANOMALY": 262.4103,
    "EPHEMERIS_TYPE": 0,
    "CLASSIFICATION_TYPE": "U",
    "NORAD_CAT_ID": 57682,
    "ELEMENT_SET_NO": 999,
    "REV_AT_EPOCH": 12543,
    "BSTAR": 0.00032016,
    "MEAN_MOTION_DOT": 9.14e-05,
    "MEAN_MOTION_DDOT": 0.0,
    "TLE_LINE1": "1 57682U 23124V   25315.26128594  .00009140  00000+0  32016-3 0  9991",
    "TLE_LINE2": "2 57682  53.1585  37.1104 0001237  97.7038 262.4103 15.30218229125436",
    "COMMENT": "Grouped by shell and plane from TLE"
  },
  {
    "OBJECT_NAME": "STARLINK-30295",
    "OBJECT_ID": "23124W",
    "EPOCH": "2025-11-11T06:34:28.784064",
    "MEAN_MOTION": 15.30186281,
    "ECCENTRICITY": 9.38e-05,
    "INCLINATION": 53.1612,
    "RA_OF_ASC_NODE": 37.1018,
    "ARG_OF_PERICENTER": 85.3894,
    "MEAN_ANOMALY": 274.7214,
    "EPHEMERIS_TYPE": 0,
    "CLASSIFICATION_TYPE": "U",
    "NORAD_CAT_ID": 57683,
    "ELEMENT_SET_NO": 999,
    "REV_AT_EPOCH": 12543,
    "BSTAR": 0.00010788,
    "MEAN_MOTION_DOT": 2.836e-05,
    "MEAN_MOTION_DDOT": 0.0,
    "TLE_LINE1": "1 57683U 23124W   25315.27394426  .00002836  00000+0  10788-3 0  9999",
    "TLE_LINE2": "2 57683  53.1612  37.1018 0000938  85.3894 274.7214 15.30186281125433",
    "COMMENT": "Grouped by shell and plane from TLE"
  },
  {
    "OBJECT_NAME": "STARLINK-31113",
    "OBJECT_ID": "23211B",
    "EPOCH": "2025-11-11T05:53:38.458464",
    "MEAN_MOTION": 15.2763415,
    "ECCENTRICITY": 0.0001311,
    "INCLINATION": 42.9959,
    "RA_OF_ASC_NODE": 33.8866,
    "ARG_OF_PERICENTER": 279.6585,
    "MEAN_ANOMALY": 80.4119,
    "EPHEMERIS_TYPE": 0,
    "CLASSIFICATION_TYPE": "U",
    "NORAD_CAT_ID": 58668,
    "ELEMENT_SET_NO": 999,
    "REV_AT_EPOCH": 10435,
    "BSTAR": 0.0007761700000000001,
    "MEAN_MOTION_DOT": 0.00021193,
    "MEAN_MOTION_DDOT": 0.0,
    "TLE_LINE1": "1 58668U 23211B   25315.24558401  .00021193  00000+0  77617-3 0  9993",
    "TLE_LINE2": "2 58668  42.9959  33.8866 0001311 279.6585  80.4119 15.27634150104355",
    "COMMENT": "Grouped by shell and plane from TLE"
  },
  {
    "OBJECT_NAME": "STARLINK-31128",
    "OBJECT_ID": "23211C",
    "EPOCH": "2025-11-11T06:17:42.995616",
    "MEAN_MOTION": 15.27581185,
    "ECCENTRICITY": 0.0001126,
    "INCLINATION": 42.9985,
    "RA_OF_ASC_NODE": 34.0114,
    "ARG_OF_PERICENTER": 276.5288,
    "MEAN_ANOMALY": 83.5435,
    "EPHEMERIS_TYPE": 0,
    "CLASSIFICATION_TYPE": "U",
    "NORAD_CAT_ID": 58669,
    "ELEMENT_SET_NO": 999,
    "REV_AT_EPOCH": 10435,
    "BSTAR": 0.00049319,
    "MEAN_MOTION_DOT": 0.00013334,
    "MEAN_MOTION_DDOT": 0.0,
    "TLE_LINE1": "1 58669U 23211C   25315.26230319  .00013334  00000+0  49319-3 0  9997",
    "TLE_LINE2": "2 58669  42.9985  34.0114 0001126 276.5288  83.5435 15.27581185104358",
    "COMMENT": "Grouped by shell and plane from TLE"
  },
  {
    "OBJECT_NAME": "STARLINK-31083",
    "OBJECT_ID": "23211D",
    "EPOCH": "2025-11-11T05:48:08.624736",
    "MEAN_MOTION": 15.2756225,
    "ECCENTRICITY": 0.0001032,
    "INCLINATION": 42.9971,
    "RA_OF_ASC_NODE": 33.8601,
    "ARG_OF_PERICENTER": 282.6304,
    "MEAN_ANOMALY": 77.4432,
    "EPHEMERIS_TYPE": 0,
    "CLASSIFICATION_TYPE": "U",
    "NORAD_CAT_ID": 58670,
    "ELEMENT_SET_NO": 999,
    "REV_AT_EPOCH": 10435,
    "BSTAR": 0.0,
    "MEAN_MOTION_DOT": -2.576e-05,
    "MEAN_MOTION_DDOT": 0.0,
    "TLE_LINE1": "1 58670U 23211D   25315.24176649 -.00002576  00000+0 -84158-4 0  9991",
    "TLE_LINE2": "2 58670  42.9971  33.8601 0001032 282.6304  77.4432 15.27562250104357",
    "COMMENT": "Grouped by shell and plane from TLE"
  },
  {
    "OBJECT_NAME": "STARLINK-30828",
    "OBJECT_ID": "23211E",
    "EPOCH": "2025-11-11T04:58:23.257632",
    "MEAN_MOTION": 15.27563764,
    "ECCENTRICITY": 0.0001917,
    "INCLINATION": 43.0023,
    "RA_OF_ASC_NODE": 34.4572,
    "ARG_OF_PERICENTER": 299.3293,
    "MEAN_ANOMALY": 60.7367,
    "EPHEMERIS_TYPE": 0,
    "CLASSIFICATION_TYPE": "U",
    "NORAD_CAT_ID": 58671,
    "ELEMENT_SET_NO": 999,
    "REV_AT_EPOCH": 10434,
    "BSTAR": 0.0,
    "MEAN_MOTION_DOT": -1.113e-05,
    "MEAN_MOTION_DDOT": 0.0,
    "TLE_LINE1": "1 58671U 23211E   25315.20721363 -.00001113  00000+0 -30922-4 0  9993",
    "TLE_LINE2": "2 58671  43.0023  34.4572 0001917 299.3293  60.7367 15.27563764104348",
    "COMMENT": "Grouped by shell and plane from TLE"
  },
  {
    "OBJECT_NAME": "STARLINK-31104",
    "OBJECT_ID": "23211F",
    "EPOCH": "2025-11-11T07:16:44.009760",
    "MEAN_MOTION": 15.27582168,
    "ECCENTRICITY": 0.0001195,
    "INCLINATION": 43.0013,
    "RA_OF_ASC_NODE": 33.4629,
    "ARG_OF_PERICENTER": 270.3996,
    "MEAN_ANOMALY": 89.6718,
    "EPHEMERIS_TYPE": 0,
    "CLASSIFICATION_TYPE": "U",
    "NORAD_CAT_ID": 58672,
    "ELEMENT_SET_NO": 999,
    "REV_AT_EPOCH": 10564,
    "BSTAR": 0.00012863,
    "MEAN_MOTION_DOT": 3.279e-05,
    "MEAN_MOTION_DDOT": 0.0,
    "TLE_LINE1": "1 58672U 23211F   25315.30328715  .00003279  00000+0  12863-3 0  9995",
    "TLE_LINE2": "2 58672  43.0013  33.4629 0001195 270.3996  89.6718 15.27582168105640",
    "COMMENT": "Grouped by shell and plane from TLE"
  },
  {
    "OBJECT_NAME": "STARLINK-31124",
    "OBJECT_ID": "23211H",
    "EPOCH": "2025-11-11T05:59:13.561728",
    "MEAN_MOTION": 15.275889,
    "ECCENTRICITY": 0.0001487,
    "INCLINATION": 43.0007,
    "RA_OF_ASC_NODE": 33.9195,
    "ARG_OF_PERICENTER": 276.3554,
    "MEAN_ANOMALY": 83.7128,
    "EPHEMERIS_TYPE": 0,
    "CLASSIFICATION_TYPE": "U",
    "NORAD_CAT_ID": 58674,
    "ELEMENT_SET_NO": 999,
    "REV_AT_EPOCH": 10435,
    "BSTAR": 0.00071744,
    "MEAN_MOTION_DOT": 0.00019538,
    "MEAN_MOTION_DDOT": 0.0,
    "TLE_LINE1": "1 58674U 23211H   25315.24946252  .00019538  00000+0  71744-3 0  9990",
    "TLE_LINE2": "2 58674  43.0007  33.9195 0001487 276.3554  83.7128 15.27588900104355",
    "COMMENT": "Grouped by shell and plane from TLE"
  },
  {
    "OBJECT_NAME": "STARLINK-31126",
    "OBJECT_ID": "23211J",
    "EPOCH": "2025-11-11T05:37:01.354080",
    "MEAN_MOTION": 15.27577852,
    "ECCENTRICITY": 5.15e-05,
    "INCLINATION": 42.999,
    "RA_OF_ASC_NODE": 33.7949,
    "ARG_OF_PERICENTER": 297.43,
    "MEAN_ANOMALY": 62.6499,
    "EPHEMERIS_TYPE": 0,
    "CLASSIFICATION_TYPE": "U",
    "NORAD_CAT_ID": 58675,
    "ELEMENT_SET_NO": 999,
    "REV_AT_EPOCH": 10435,
    "BSTAR": 0.00012229,
    "MEAN_MOTION_DOT": 3.105e-05,
    "MEAN_MOTION_DDOT": 0.0,
    "TLE_LINE1": "1 58675U 23211J   25315.23404345  .00003105  00000+0  12229-3 0  9998",
    "TLE_LINE2": "2 58675  42.9990  33.7949 0000515 297.4300  62.6499 15.27577852104355",
    "COMMENT": "Grouped by shell and plane from TLE"
  }
]